GLOBALSTAR M035         
1 25851U 99037A   24146.53703301  .00000001  00000+0  24545-2 0  9990
2 25851  51.9925 199.4553 0013118  75.2265  74.2079 11.04530953 53425
GLOBALSTAR M032         
1 25852U 99037B   24146.39899712 -.00000051  00000+0  50716-3 0  9993
2 25852  51.9977  51.7148 0009367 233.4388 126.5550 11.19052994 91379
GLOBALSTAR M051         
1 25853U 99037C   24146.54746969 -.00000022  00000+0  12263-2 0  9998
2 25853  51.9796 256.0184 0001452 217.8975 142.1734 11.42197381 88093
GLOBALSTAR M030         
1 25854U 99037D   24146.58023754 -.00000089  00000+0 -30571-3 0  9990
2 25854  51.9875  86.6888 0004140  70.7977 289.3288 11.55095931105253
GLOBALSTAR M048         
1 25872U 99041A   24146.60540240 -.00000057  00000+0  35383-3 0  9992
2 25872  51.9336 175.9263 0013803 234.2469 309.0985 11.33846684 81019
GLOBALSTAR M026         
1 25873U 99041B   24146.43113306 -.00000127  00000+0 -23093-2 0  9996
2 25873  52.0033 321.7312 0001046 352.3270  18.7071 11.06836059105551
GLOBALSTAR M043         
1 25874U 99041C   24146.58396668 -.00000112  00000+0 -13076-2 0  9991
2 25874  51.9406 268.1727 0012137  13.3122  72.4510 11.25681043 79222
GLOBALSTAR M028         
1 25875U 99041D   24146.59679511 -.00000061  00000+0  25362-3 0  9998
2 25875  51.9629 268.7667 0062739 309.7645  49.7700 12.50556128141686
